start=new Date('2021-11-28T00:00:00.000Z').valueOf();
sats=[{"OBJECT_ID":"2021-041S","INCLINATION":"53.0557","REF_FRAME":"TEME","APOAPSIS":"548.625","PERIAPSIS":"545.857","CENTER_NAME":"EARTH","TLE_LINE2":"2 48569  53.0557 308.4763 0001999  59.1917 300.9269 15.06391028 29612","EPHEMERIS_TYPE":"0","EPOCH":"2021-11-27T15:07:40.354752","PERIOD":"95.593","ARG_OF_PERICENTER":"59.1917","MEAN_ELEMENT_THEORY":"SGP4","TLE_LINE1":"1 48569U 21041S   21331.63032818  .00000487  00000-0  51645-4 0  9995","RCS_SIZE":"LARGE","MEAN_MOTION_DOT":"0.00000487","REV_AT_EPOCH":"2961","NORAD_CAT_ID":"48569","FILE":"3225675","RA_OF_ASC_NODE":"308.4763","MEAN_MOTION":"15.06391028","MEAN_ANOMALY":"300.9269","SEMIMAJOR_AXIS":"6925.376","CLASSIFICATION_TYPE":"U","COUNTRY_CODE":"US","DECAY_DATE":null,"ECCENTRICITY":"0.00019990","ELEMENT_SET_NO":"999","MEAN_MOTION_DDOT":"0.0000000000000","LAUNCH_DATE":"2021-05-15","GP_ID":"190624091","SITE":"AFETR","TIME_SYSTEM":"UTC","OBJECT_NAME":"STARLINK-2219","BSTAR":"0.00005164500000","OBJECT_TYPE":"PAYLOAD"},{"MEAN_ANOMALY":"302.1102","MEAN_MOTION":"15.06395671","SEMIMAJOR_AXIS":"6925.362","CLASSIFICATION_TYPE":"U","COUNTRY_CODE":"US","DECAY_DATE":null,"RA_OF_ASC_NODE":"318.2155","FILE":"3225675","NORAD_CAT_ID":"48570","SITE":"AFETR","TIME_SYSTEM":"UTC","OBJECT_NAME":"STARLINK-2220","OBJECT_TYPE":"PAYLOAD","BSTAR":"0.00003491400000","ECCENTRICITY":"0.00018630","ELEMENT_SET_NO":"999","GP_ID":"190624452","LAUNCH_DATE":"2021-05-15","MEAN_MOTION_DDOT":"0.0000000000000","APOAPSIS":"548.517","REF_FRAME":"TEME","CENTER_NAME":"EARTH","PERIAPSIS":"545.937","EPHEMERIS_TYPE":"0","TLE_LINE2":"2 48570  53.0546 318.2155 0001863  58.0068 302.1102 15.06395671 29473","OBJECT_ID":"2021-041T","INCLINATION":"53.0546","TLE_LINE1":"1 48570U 21041T   21331.68469796  .00000238  00000-0  34914-4 0  9995","MEAN_ELEMENT_THEORY":"SGP4","RCS_SIZE":"LARGE","MEAN_MOTION_DOT":"0.00000238","REV_AT_EPOCH":"2947","ARG_OF_PERICENTER":"58.0068","PERIOD":"95.592","EPOCH":"2021-11-27T16:25:57.903744"},{"INCLINATION":"53.0566","OBJECT_ID":"2021-041U","TLE_LINE2":"2 48571  53.0566 318.1921 0001708  60.2380 299.8779 15.06405291 29489","EPHEMERIS_TYPE":"0","PERIAPSIS":"546.014","CENTER_NAME":"EARTH","REF_FRAME":"TEME","APOAPSIS":"548.380","EPOCH":"2021-11-27T16:36:34.024608","ARG_OF_PERICENTER":"60.2380","PERIOD":"95.592","REV_AT_EPOCH":"2948","MEAN_MOTION_DOT":"0.00001703","RCS_SIZE":"LARGE","MEAN_ELEMENT_THEORY":"SGP4","TLE_LINE1":"1 48571U 21041U   21331.69206047  .00001703  00000-0  13320-3 0  9990","NORAD_CAT_ID":"48571","FILE":"3225675","RA_OF_ASC_NODE":"318.1921","DECAY_DATE":null,"COUNTRY_CODE":"US","CLASSIFICATION_TYPE":"U","SEMIMAJOR_AXIS":"6925.332","MEAN_MOTION":"15.06405291","MEAN_ANOMALY":"299.8779","MEAN_MOTION_DDOT":"0.0000000000000","LAUNCH_DATE":"2021-05-15","GP_ID":"190623928","ELEMENT_SET_NO":"999","ECCENTRICITY":"0.00017080","BSTAR":"0.00013320000000","OBJECT_TYPE":"PAYLOAD","TIME_SYSTEM":"UTC","OBJECT_NAME":"STARLINK-2221","SITE":"AFETR"},{"RA_OF_ASC_NODE":"318.1974","FILE":"3225675","NORAD_CAT_ID":"48572","CLASSIFICATION_TYPE":"U","SEMIMAJOR_AXIS":"6925.333","MEAN_ANOMALY":"297.9945","MEAN_MOTION":"15.06405112","DECAY_DATE":null,"COUNTRY_CODE":"US","ELEMENT_SET_NO":"999","ECCENTRICITY":"0.00018750","LAUNCH_DATE":"2021-05-15","GP_ID":"190624323","MEAN_MOTION_DDOT":"0.0000000000000","TIME_SYSTEM":"UTC","OBJECT_NAME":"STARLINK-2222","SITE":"AFETR","OBJECT_TYPE":"PAYLOAD","BSTAR":"0.00002787700000","OBJECT_ID":"2021-041V","INCLINATION":"53.0561","CENTER_NAME":"EARTH","PERIAPSIS":"545.899","APOAPSIS":"548.496","REF_FRAME":"TEME","EPHEMERIS_TYPE":"0","TLE_LINE2":"2 48572  53.0561 318.1974 0001875  62.1233 297.9945 15.06405112 29482","ARG_OF_PERICENTER":"62.1233","PERIOD":"95.592","EPOCH":"2021-11-27T16:31:15.448800","RCS_SIZE":"LARGE","TLE_LINE1":"1 48572U 21041V   21331.68837325  .00000134  00000-0  27877-4 0  9999","MEAN_ELEMENT_THEORY":"SGP4","REV_AT_EPOCH":"2948","MEAN_MOTION_DOT":"0.00000134"},{"NORAD_CAT_ID":"48573","FILE":"3225675","RA_OF_ASC_NODE":"308.2966","DECAY_DATE":null,"COUNTRY_CODE":"US","SEMIMAJOR_AXIS":"6925.362","CLASSIFICATION_TYPE":"U","MEAN_MOTION":"15.06395648","MEAN_ANOMALY":"308.3977","MEAN_MOTION_DDOT":"0.0000000000000","GP_ID":"190623816","LAUNCH_DATE":"2021-05-15","ELEMENT_SET_NO":"999","ECCENTRICITY":"0.00017870","BSTAR":"-0.00001454600000","OBJECT_TYPE":"PAYLOAD","TIME_SYSTEM":"UTC","OBJECT_NAME":"STARLINK-2224","SITE":"AFETR","INCLINATION":"53.0539","OBJECT_ID":"2021-041W","TLE_LINE2":"2 48573  53.0539 308.2966 0001787  51.7173 308.3977 15.06395648 29617","EPHEMERIS_TYPE":"0","PERIAPSIS":"545.989","CENTER_NAME":"EARTH","APOAPSIS":"548.464","REF_FRAME":"TEME","EPOCH":"2021-11-27T16:00:45.092448","ARG_OF_PERICENTER":"51.7173","PERIOD":"95.592","REV_AT_EPOCH":"2961","MEAN_MOTION_DOT":"-0.00000498","RCS_SIZE":"LARGE","MEAN_ELEMENT_THEORY":"SGP4","TLE_LINE1":"1 48573U 21041W   21331.66718857 -.00000498  00000-0 -14546-4 0  9990"},{"PERIAPSIS":"545.724","CENTER_NAME":"EARTH","APOAPSIS":"548.663","REF_FRAME":"TEME","TLE_LINE2":"2 48574  53.0414 277.2339 0002122  64.9569  59.0467 15.06406402  3581","EPHEMERIS_TYPE":"0","OBJECT_ID":"2021-041X","INCLINATION":"53.0414","RCS_SIZE":"LARGE","MEAN_ELEMENT_THEORY":"SGP4","TLE_LINE1":"1 48574U 21041X   21331.91667824 -.00008266  00000-0 -53651-3 0  9996","REV_AT_EPOCH":"358","MEAN_MOTION_DOT":"-0.00008266","EPOCH":"2021-11-27T22:00:00.999936","PERIOD":"95.592","ARG_OF_PERICENTER":"64.9569","SEMIMAJOR_AXIS":"6925.329","CLASSIFICATION_TYPE":"U","MEAN_MOTION":"15.06406402","MEAN_ANOMALY":"59.0467","DECAY_DATE":null,"COUNTRY_CODE":"US","RA_OF_ASC_NODE":"277.2339","FILE":"3225675","NORAD_CAT_ID":"48574","TIME_SYSTEM":"UTC","OBJECT_NAME":"STARLINK-2225","SITE":"AFETR","BSTAR":"-0.00053651000000","OBJECT_TYPE":"PAYLOAD","ELEMENT_SET_NO":"999","ECCENTRICITY":"0.00021220","MEAN_MOTION_DDOT":"0.0000000000000","GP_ID":"190624687","LAUNCH_DATE":"2021-05-15"},{"EPOCH":"2021-11-27T22:00:00.999936","PERIOD":"93.374","ARG_OF_PERICENTER":"22.1843","MEAN_ELEMENT_THEORY":"SGP4","TLE_LINE1":"1 48575U 21041Y   21331.91667824 -.00017341  00000-0 -38957-3 0  9993","RCS_SIZE":"LARGE","MEAN_MOTION_DOT":"-0.00017341","REV_AT_EPOCH":"363","OBJECT_ID":"2021-041Y","INCLINATION":"53.0547","REF_FRAME":"TEME","APOAPSIS":"441.382","PERIAPSIS":"437.979","CENTER_NAME":"EARTH","TLE_LINE2":"2 48575  53.0547 272.3216 0002496  22.1843 277.7184 15.42179388  3635","EPHEMERIS_TYPE":"0","ECCENTRICITY":"0.00024960","ELEMENT_SET_NO":"999","MEAN_MOTION_DDOT":"0.0000000000000","LAUNCH_DATE":"2021-05-15","GP_ID":"190624204","SITE":"AFETR","TIME_SYSTEM":"UTC","OBJECT_NAME":"STARLINK-2227","BSTAR":"-0.00038957000000","OBJECT_TYPE":"PAYLOAD","FILE":"3225675","NORAD_CAT_ID":"48575","RA_OF_ASC_NODE":"272.3216","MEAN_MOTION":"15.42179388","MEAN_ANOMALY":"277.7184","CLASSIFICATION_TYPE":"U","SEMIMAJOR_AXIS":"6817.816","COUNTRY_CODE":"US","DECAY_DATE":null},{"APOAPSIS":"554.049","REF_FRAME":"TEME","PERIAPSIS":"550.412","CENTER_NAME":"EARTH","TLE_LINE2":"2 48576  53.0551 281.9833 0002624  50.6706 354.1770 15.04764471  3585","EPHEMERIS_TYPE":"0","OBJECT_ID":"2021-041Z","INCLINATION":"53.0551","MEAN_ELEMENT_THEORY":"SGP4","TLE_LINE1":"1 48576U 21041Z   21331.91667824 -.00002724  00000-0 -17172-3 0  9999","RCS_SIZE":"LARGE","MEAN_MOTION_DOT":"-0.00002724","REV_AT_EPOCH":"358","EPOCH":"2021-11-27T22:00:00.999936","ARG_OF_PERICENTER":"50.6706","PERIOD":"95.696","MEAN_MOTION":"15.04764471","MEAN_ANOMALY":"354.1770","SEMIMAJOR_AXIS":"6930.366","CLASSIFICATION_TYPE":"U","COUNTRY_CODE":"US","DECAY_DATE":null,"FILE":"3225675","RA_OF_ASC_NODE":"281.9833","NORAD_CAT_ID":"48576","SITE":"AFETR","OBJECT_NAME":"STARLINK-2228","TIME_SYSTEM":"UTC","BSTAR":"-0.00017172000000","OBJECT_TYPE":"PAYLOAD","ECCENTRICITY":"0.00026240","ELEMENT_SET_NO":"999","MEAN_MOTION_DDOT":"0.0000000000000","GP_ID":"190624049","LAUNCH_DATE":"2021-05-15"},{"CLASSIFICATION_TYPE":"U","SEMIMAJOR_AXIS":"6925.348","MEAN_MOTION":"15.06400156","MEAN_ANOMALY":"301.5039","DECAY_DATE":null,"COUNTRY_CODE":"US","FILE":"3225675","NORAD_CAT_ID":"48577","RA_OF_ASC_NODE":"308.3356","TIME_SYSTEM":"UTC","OBJECT_NAME":"STARLINK-2231","SITE":"AFETR","BSTAR":"0.00015677000000","OBJECT_TYPE":"PAYLOAD","ELEMENT_SET_NO":"999","ECCENTRICITY":"0.00019460","MEAN_MOTION_DDOT":"0.0000000000000","GP_ID":"190624092","LAUNCH_DATE":"2021-05-15","PERIAPSIS":"545.865","CENTER_NAME":"EARTH","REF_FRAME":"TEME","APOAPSIS":"548.561","TLE_LINE2":"2 48577  53.0544 308.3356 0001946  58.6140 301.5039 15.06400156 29613","EPHEMERIS_TYPE":"0","OBJECT_ID":"2021-041AA","INCLINATION":"53.0544","RCS_SIZE":"LARGE","MEAN_ELEMENT_THEORY":"SGP4","TLE_LINE1":"1 48577U 21041AA  21331.65980942  .00002054  00000-0  15677-3 0  9992","REV_AT_EPOCH":"2961","MEAN_MOTION_DOT":"0.00002054","EPOCH":"2021-11-27T15:50:07.533888","PERIOD":"95.592","ARG_OF_PERICENTER":"58.6140"},{"ARG_OF_PERICENTER":"40.3830","PERIOD":"95.592","EPOCH":"2021-11-27T15:22:13.900224","REV_AT_EPOCH":"2961","MEAN_MOTION_DOT":"-0.00000950","RCS_SIZE":"LARGE","TLE_LINE1":"1 48578U 21041AB  21331.64043866 -.00000950  00000-0 -44883-4 0  9994","MEAN_ELEMENT_THEORY":"SGP4","INCLINATION":"53.0564","OBJECT_ID":"2021-041AB","EPHEMERIS_TYPE":"0","TLE_LINE2":"2 48578  53.0564 308.4121 0001671  40.3830 319.7283 15.06394966 29619","CENTER_NAME":"EARTH","PERIAPSIS":"546.072","APOAPSIS":"548.386","REF_FRAME":"TEME","GP_ID":"190624453","LAUNCH_DATE":"2021-05-15","MEAN_MOTION_DDOT":"0.0000000000000","ELEMENT_SET_NO":"999","ECCENTRICITY":"0.00016710","OBJECT_TYPE":"PAYLOAD","BSTAR":"-0.00004488300000","TIME_SYSTEM":"UTC","OBJECT_NAME":"STARLINK-2232","SITE":"AFETR","FILE":"3225675","RA_OF_ASC_NODE":"308.4121","NORAD_CAT_ID":"48578","DECAY_DATE":null,"COUNTRY_CODE":"US","SEMIMAJOR_AXIS":"6925.364","CLASSIFICATION_TYPE":"U","MEAN_ANOMALY":"319.7283","MEAN_MOTION":"15.06394966"}];
